TRANSIT 16 [?]          
1 02807U 67048A   22263.11636992  .00000098  00000+0  13739-3 0  9996
2 02807  89.6598  33.2036 0018443 288.1016 245.9398 13.50325699724047
TRANSIT 17 [?]          
1 02965U 67092A   22263.32724738  .00000109  00000+0  14426-3 0  9996
2 02965  89.2328 116.1304 0049443  61.0834 112.7629 13.53037635711887
TRANSIT 18 [?]          
1 03133U 68012A   22262.76841425  .00000110  00000+0  15338-3 0  9992
2 03133  90.0010 271.6332 0074594 349.7007 183.3285 13.51163367409824
NNSS 19 [?]             
1 04507U 70067A   22263.37341798  .00000128  00000+0  16412-3 0  9990
2 04507  89.9239 238.6015 0174401 108.9961 253.0176 13.50839910563360
NNSS O-20 [?]           
1 06909U 73081A   22262.43293922  .00000138  00000+0  13157-3 0  9992
2 06909  89.8135 275.6677 0156921  16.3058 344.3071 13.70696103641882
TRANSAT [?]             
1 10457U 77106A   22262.40155089  .00000068  00000+0  92003-4 0  9995
2 10457  89.6755 119.5018 0025235   0.6406 173.3474 13.48687793208327
NOVA I [?]              
1 12458U 81044A   22262.82558936  .00000086  00000+0  18280-3 0  9992
2 12458  89.8806 106.6492 0016009 114.5351 257.8242 13.23072431995824
NOVA 3 [?]              
1 15362U 84110A   22263.40529812  .00000085  00000+0  18293-3 0  9995
2 15362  90.0962  67.8581 0031271 343.8118  43.4980 13.22839762831331
OSCAR 30 [?]            
1 15935U 85066A   22262.95418132  .00000093  00000+0  15094-3 0  9998
2 15935  90.1730  79.5448 0169088 171.2937 353.7753 13.35764873807087
OSCAR 24 [?]            
1 15936U 85066B   22262.80713980  .00000083  00000+0  13429-3 0  9991
2 15936  90.1700  71.4807 0169455 177.4506 311.8106 13.35625012808914
POLAR BEAR [?]          
1 17070U 86088A   22263.17045527  .00000104  00000+0  96607-4 0  9997
2 17070  89.5661 233.2624 0041299  78.4577 293.0956 13.74879138797960
OSCAR 27 [?]            
1 18361U 87080A   22263.10059797  .00000074  00000+0  10981-3 0  9997
2 18361  90.3356  37.3628 0104246   3.5923 356.5950 13.44573122717285
OSCAR 29 [?]            
1 18362U 87080B   22263.31627720  .00000084  00000+0  12622-3 0  9993
2 18362  90.3368  37.7064 0106614  23.3973 354.3128 13.44162162716902
OSCAR 23 [?]            
1 19070U 88033A   22263.50814471  .00000074  00000+0  13494-3 0  9998
2 19070  90.3345 339.8244 0188913 218.9392 152.4171 13.27529945666332
OSCAR 32 [?]            
1 19071U 88033B   22262.50810356  .00000065  00000+0  11627-3 0  9992
2 19071  90.3347 339.8792 0187523 209.5392 159.5930 13.27709549666459
NOVA 11 [?]             
1 19223U 88052A   22262.78794108  .00000028  00000+0  45495-4 0  9998
2 19223  89.9699  80.6259 0031459  28.6199 343.0958 13.22750690653489
OSCAR 25 [?]            
1 19419U 88074A   22262.81526427  .00000069  00000+0  10423-3 0  9997
2 19419  90.0111  17.9360 0096487  13.0639 152.8934 13.42302961668092
OSCAR 31 [?]            
1 19420U 88074B   22262.82914368  .00000062  00000+0  91543-4 0  9991
2 19420  90.0121  18.1216 0094487   7.1999 160.9772 13.42313523668208
